{
  "norad_id": 65950,
  "name": "KUIPER-00121",
  "history": [
    {
      "epoch": "2026-03-28T21:58:35.597856Z",
      "apogee_km": 629.9109078607898,
      "perigee_km": 629.0055265587262,
      "latitude_deg": -1.743984565561299e-05,
      "longitude_deg": 112.0977810252415,
      "height_km": 630.4107095214064,
      "semi_major_axis_km": 7007.595217209758,
      "eccentricity": 6.46e-05,
      "inclination_deg": 51.8993,
      "raan_deg": 268.0754,
      "arg_perigee_deg": 117.1456,
      "mean_anomaly_deg": 242.9572,
      "mean_motion_rev_day": 14.79957523
    },
    {
      "epoch": "2026-03-28T21:58:35.598720Z",
      "apogee_km": 629.9106976329331,
      "perigee_km": 629.0057367865829,
      "latitude_deg": -1.50163720951328e-05,
      "longitude_deg": 112.09777930537471,
      "height_km": 630.4106136070546,
      "semi_major_axis_km": 7007.595217209758,
      "eccentricity": 6.457e-05,
      "inclination_deg": 51.8993,
      "raan_deg": 268.0754,
      "arg_perigee_deg": 117.1456,
      "mean_anomaly_deg": 242.9572,
      "mean_motion_rev_day": 14.79957523
    },
    {
      "epoch": "2026-03-30T04:46:12.180576Z",
      "apogee_km": 629.8665681950051,
      "perigee_km": 629.137773721226,
      "latitude_deg": -8.87929046146317e-06,
      "longitude_deg": 3.2557164951331887,
      "height_km": 630.3756686647475,
      "semi_major_axis_km": 7007.639170958116,
      "eccentricity": 5.2e-05,
      "inclination_deg": 51.8975,
      "raan_deg": 262.4004,
      "arg_perigee_deg": 110.5029,
      "mean_anomaly_deg": 249.5989,
      "mean_motion_rev_day": 14.79943599
    },
    {
      "epoch": "2026-03-30T04:46:12.182304Z",
      "apogee_km": 629.8664981186139,
      "perigee_km": 629.1378437976182,
      "latitude_deg": -8.043675016679255e-06,
      "longitude_deg": 3.255709927144392,
      "height_km": 630.375644122866,
      "semi_major_axis_km": 7007.639170958116,
      "eccentricity": 5.199e-05,
      "inclination_deg": 51.8975,
      "raan_deg": 262.4004,
      "arg_perigee_deg": 110.5029,
      "mean_anomaly_deg": 249.5989,
      "mean_motion_rev_day": 14.79943599
    },
    {
      "epoch": "2026-03-30T11:15:10.380096Z",
      "apogee_km": 629.929001161704,
      "perigee_km": 629.0871026851664,
      "latitude_deg": -1.5287147370178365e-05,
      "longitude_deg": -95.44772668952525,
      "height_km": 630.4249392295277,
      "semi_major_axis_km": 7007.645051923435,
      "eccentricity": 6.007e-05,
      "inclination_deg": 51.8971,
      "raan_deg": 261.2057,
      "arg_perigee_deg": 113.9891,
      "mean_anomaly_deg": 246.1134,
      "mean_motion_rev_day": 14.79941736
    },
    {
      "epoch": "2026-03-30T17:44:08.521728Z",
      "apogee_km": 629.9217639671042,
      "perigee_km": 629.0865932914348,
      "latitude_deg": -1.9520176375196526e-06,
      "longitude_deg": 165.84918738440717,
      "height_km": 630.415018554616,
      "semi_major_axis_km": 7007.641178629269,
      "eccentricity": 5.959e-05,
      "inclination_deg": 51.8971,
      "raan_deg": 260.0111,
      "arg_perigee_deg": 113.2881,
      "mean_anomaly_deg": 246.8144,
      "mean_motion_rev_day": 14.79942963
    },
    {
      "epoch": "2026-03-31T18:02:46.285440Z",
      "apogee_km": 629.8663382799114,
      "perigee_km": 629.0786829709177,
      "latitude_deg": -6.215410373240153e-06,
      "longitude_deg": 155.7144402721212,
      "height_km": 630.3296506867733,
      "semi_major_axis_km": 7007.609510625414,
      "eccentricity": 5.62e-05,
      "inclination_deg": 51.8978,
      "raan_deg": 255.5321,
      "arg_perigee_deg": 106.4167,
      "mean_anomaly_deg": 253.6857,
      "mean_motion_rev_day": 14.79952995
    },
    {
      "epoch": "2026-04-01T16:44:11.274144Z",
      "apogee_km": 629.9433017133606,
      "perigee_km": 629.1808640531426,
      "latitude_deg": 2.558963260829942e-05,
      "longitude_deg": 170.24699021788797,
      "height_km": 630.0486306769703,
      "semi_major_axis_km": 7007.699082883251,
      "eccentricity": 5.44e-05,
      "inclination_deg": 51.8978,
      "raan_deg": 251.3506,
      "arg_perigee_deg": 313.0838,
      "mean_anomaly_deg": 47.0079,
      "mean_motion_rev_day": 14.7992462
    },
    {
      "epoch": "2026-04-02T17:02:50.612928Z",
      "apogee_km": 630.0096784792204,
      "perigee_km": 629.1028829686948,
      "latitude_deg": -2.5475829253386766e-05,
      "longitude_deg": 160.10692534951613,
      "height_km": 630.3284222764329,
      "semi_major_axis_km": 7007.693280723957,
      "eccentricity": 6.47e-05,
      "inclination_deg": 51.9003,
      "raan_deg": 246.8729,
      "arg_perigee_deg": 93.3099,
      "mean_anomaly_deg": 266.7937,
      "mean_motion_rev_day": 14.79926458
    },
    {
      "epoch": "2026-04-02T17:02:50.613792Z",
      "apogee_km": 630.0096784792204,
      "perigee_km": 629.1028829686948,
      "latitude_deg": -2.547582925801565e-05,
      "longitude_deg": 160.10692173965782,
      "height_km": 630.328422276431,
      "semi_major_axis_km": 7007.693280723957,
      "eccentricity": 6.47e-05,
      "inclination_deg": 51.9003,
      "raan_deg": 246.8729,
      "arg_perigee_deg": 93.3099,
      "mean_anomaly_deg": 266.7937,
      "mean_motion_rev_day": 14.79926458
    }
  ]
}